NAVSTAR 77 (USA 289)    
1 43873U 18109A   24232.15241619  .00000016  00000+0  00000+0 0  9991
2 43873  55.3186 118.5399 0030056 193.0341 339.1421  2.00558618 41694
